$$SOE
2460154.500000000, A.D. 2023-Jul-29 00:00:00.0000, -2.576309219970945E+08, -1.144538209300247E+08, 1.528639714684135E+07,
2460161.500000000, A.D. 2023-Aug-05 00:00:00.0000, -2.517993076515919E+08, -1.254658558166473E+08, 2.014207697191919E+07,
2460168.500000000, A.D. 2023-Aug-12 00:00:00.0000, -2.454230622321343E+08, -1.362064839094937E+08, 2.495418200321372E+07,
2460175.500000000, A.D. 2023-Aug-19 00:00:00.0000, -2.385145482156891E+08, -1.466516792390150E+08, 2.971215755436525E+07,
2460182.500000000, A.D. 2023-Aug-26 00:00:00.0000, -2.310874926822350E+08, -1.567780151394477E+08, 3.440552703362441E+07,
2460189.500000000, A.D. 2023-Sep-02 00:00:00.0000, -2.231569585730878E+08, -1.665627403196377E+08, 3.902392422285449E+07,
2460196.500000000, A.D. 2023-Sep-09 00:00:00.0000, -2.147393100130408E+08, -1.759838533889514E+08, 4.355712556796934E+07,
2460203.500000000, A.D. 2023-Sep-16 00:00:00.0000, -2.058521716177762E+08, -1.850201754150871E+08, 4.799508226664552E+07,
2460210.500000000, A.D. 2023-Sep-23 00:00:00.0000, -1.965143815137910E+08, -1.936514197536267E+08, 5.232795194157680E+07,
2460217.500000000, A.D. 2023-Sep-30 00:00:00.0000, -1.867459386061166E+08, -2.018582574975013E+08, 5.654612982968716E+07,
2460224.500000000, A.D. 2023-Oct-07 00:00:00.0000, -1.765679466924055E+08, -2.096223786469716E+08, 6.064027946134505E+07,
2460231.500000000, A.D. 2023-Oct-14 00:00:00.0000, -1.660025546784496E+08, -2.169265519007755E+08, 6.460136227062473E+07,
2460238.500000000, A.D. 2023-Oct-21 00:00:00.0000, -1.550728900126490E+08, -2.237546810870145E+08, 6.842066578829415E+07,
2460245.500000000, A.D. 2023-Oct-28 00:00:00.0000, -1.438029871529833E+08, -2.300918556256876E+08, 7.208983055961648E+07,
2460252.500000000, A.D. 2023-Nov-04 00:00:00.0000, -1.322177127413029E+08, -2.359243954794917E+08, 7.560087567450598E+07,
2460259.500000000, A.D. 2023-Nov-11 00:00:00.0000, -1.203426877623766E+08, -2.412398909203002E+08, 7.894622269011639E+07,
2460266.500000000, A.D. 2023-Nov-18 00:00:00.0000, -1.082042069479401E+08, -2.460272369535537E+08, 8.211871777898896E+07,
2460273.500000000, A.D. 2023-Nov-25 00:00:00.0000, -9.582915585582000E+07, -2.502766622110143E+08, 8.511165197618137E+07,
2460280.500000000, A.D. 2023-Dec-02 00:00:00.0000, -8.324492611833465E+07, -2.539797522066890E+08, 8.791877942124006E+07,
2460287.500000000, A.D. 2023-Dec-09 00:00:00.0000, -7.047932931445144E+07, -2.571294669458979E+08, 9.053433350035116E+07,
2460294.500000000, A.D. 2023-Dec-16 00:00:00.0000, -5.756050971156139E+07, -2.597201528555188E+08, 9.295304079804179E+07,
2460301.500000000, A.D. 2023-Dec-23 00:00:00.0000, -4.451685605733012E+07, -2.617475483791154E+08, 9.517013283630541E+07,
2460308.500000000, A.D. 2023-Dec-30 00:00:00.0000, -3.137691428091072E+07, -2.632087822666441E+08, 9.718135578220862E+07,
2460315.500000000, A.D. 2024-Jan-06 00:00:00.0000, -1.816930337768989E+07, -2.641023670434611E+08, 9.898297808366866E+07,
2460322.500000000, A.D. 2024-Jan-13 00:00:00.0000, -4.922631783434128E+06, -2.644281896365816E+08, 1.005717956054419E+08,
2460329.500000000, A.D. 2024-Jan-20 00:00:00.0000, 8.334586531363063E+06, -2.641874962884688E+08, 1.019451344380178E+08,
2460336.500000000, A.D. 2024-Jan-27 00:00:00.0000, 2.157401379230876E+07, -2.633828713552851E+08, 1.031008516690336E+08,
2460343.500000000, A.D. 2024-Feb-03 00:00:00.0000, 3.476756715686028E+07, -2.620182112175325E+08, 1.040373341444466E+08,
2460350.500000000, A.D. 2024-Feb-10 00:00:00.0000, 4.788749437661208E+07, -2.600986939010866E+08, 1.047534952505079E+08,
2460357.500000000, A.D. 2024-Feb-17 00:00:00.0000, 6.090644620620076E+07, -2.576307447303026E+08, 1.052487697970265E+08,
2460364.500000000, A.D. 2024-Feb-24 00:00:00.0000, 7.379754531532930E+07, -2.546219983451599E+08, 1.055231071012803E+08,
2460371.500000000, A.D. 2024-Mar-02 00:00:00.0000, 8.653445149531959E+07, -2.510812574741228E+08, 1.055769623756087E+08,
2460378.500000000, A.D. 2024-Mar-09 00:00:00.0000, 9.909142310341056E+07, -2.470184488924825E+08, 1.054112865147195E+08,
2460385.500000000, A.D. 2024-Mar-16 00:00:00.0000, 1.114433749884803E+08, -2.424445767382522E+08, 1.050275143802589E+08,
2460392.500000000, A.D. 2024-Mar-23 00:00:00.0000, 1.235659326892888E+08, -2.373716724445589E+08, 1.044275518059660E+08,
2460399.500000000, A.D. 2024-Mar-30 00:00:00.0000, 1.354354806016735E+08, -2.318127416797347E+08, 1.036137616586214E+08,
2460406.500000000, A.D. 2024-Apr-06 00:00:00.0000, 1.470292043441136E+08, -2.257817120202101E+08, 1.025889487948213E+08,
2460413.500000000, A.D. 2024-Apr-13 00:00:00.0000, 1.583251308777617E+08, -2.192933808696085E+08, 1.013563437985664E+08,
2460420.500000000, A.D. 2024-Apr-20 00:00:00.0000, 1.693021654612784E+08, -2.123633612868566E+08, 9.991958594577378E+07,
2460427.500000000, A.D. 2024-Apr-27 00:00:00.0000, 1.799401239824102E+08, -2.050080266059664E+08, 9.828270562015834E+07,
2460434.500000000, A.D. 2024-May-04 00:00:00.0000, 1.902197608409944E+08, -1.972444548501876E+08, 9.645010623749581E+07,
2460441.500000000, A.D. 2024-May-11 00:00:00.0000, 2.001227927347378E+08, -1.890903733198655E+08, 9.442654576469865E+07,
2460448.500000000, A.D. 2024-May-18 00:00:00.0000, 2.096319185650925E+08, -1.805641035886706E+08, 9.221711793957469E+07,
2460455.500000000, A.D. 2024-May-25 00:00:00.0000, 2.187308356408659E+08, -1.716845071503156E+08, 8.982723329401341E+07,
2460462.500000000, A.D. 2024-Jun-01 00:00:00.0000, 2.274042524054187E+08, -1.624709319850385E+08, 8.726260006754899E+07,
2460469.500000000, A.D. 2024-Jun-08 00:00:00.0000, 2.356378981117741E+08, -1.529431602541270E+08, 8.452920507537922E+07,
2460476.500000000, A.D. 2024-Jun-15 00:00:00.0000, 2.434185300371423E+08, -1.431213567389275E+08, 8.163329462421364E+07,
2460483.500000000, A.D. 2024-Jun-22 00:00:00.0000, 2.507339374331364E+08, -1.330260169961976E+08, 7.858135574757712E+07,
2460490.500000000, A.D. 2024-Jun-29 00:00:00.0000, 2.575729402897872E+08, -1.226779171807126E+08, 7.538009787800111E+07,
2460497.500000000, A.D. 2024-Jul-06 00:00:00.0000, 2.639253857540736E+08, -1.120980681082319E+08, 7.203643456859849E+07,
2460504.500000000, A.D. 2024-Jul-13 00:00:00.0000, 2.697821443511665E+08, -1.013076708122408E+08, 6.855746536728406E+07,
2460511.500000000, A.D. 2024-Jul-20 00:00:00.0000, 2.751351042237610E+08, -9.032807250797430E+07, 6.495045816742866E+07,
2460518.500000000, A.D. 2024-Jul-27 00:00:00.0000, 2.799771629304698E+08, -7.918072396986872E+07, 6.122283205743642E+07,
2460525.500000000, A.D. 2024-Aug-03 00:00:00.0000, 2.843022172672535E+08, -6.788713872726750E+07, 5.738214064669523E+07,
2460532.500000000, A.D. 2024-Aug-10 00:00:00.0000, 2.881051514626768E+08, -5.646885409692161E+07, 5.343605587886336E+07,
2460539.500000000, A.D. 2024-Aug-17 00:00:00.0000, 2.913818239731702E+08, -4.494739403050856E+07, 4.939235235069421E+07,
2460546.500000000, A.D. 2024-Aug-24 00:00:00.0000, 2.941290530788159E+08, -3.334423378748349E+07, 4.525889214753310E+07,
2460553.500000000, A.D. 2024-Aug-31 00:00:00.0000, 2.963446015602114E+08, -2.168076647437464E+07, 4.104361018953244E+07,
2460560.500000000, A.D. 2024-Sep-07 00:00:00.0000, 2.980271609725864E+08, -9.978271296343265E+06, 3.675450006705284E+07,
2460567.500000000, A.D. 2024-Sep-14 00:00:00.0000, 2.991763357381542E+08, 1.742117516916974E+06, 3.239960043457688E+07,
2460574.500000000, A.D. 2024-Sep-21 00:00:00.0000, 2.997926251652651E+08, 1.345944157412478E+07, 2.798698217950731E+07,
2460581.500000000, A.D. 2024-Sep-28 00:00:00.0000, 2.998774030346206E+08, 2.515294578956381E+07, 2.352473613767560E+07,
2460588.500000000, A.D. 2024-Oct-05 00:00:00.0000, 2.994328985164801E+08, 3.680210250779909E+07, 1.902096100104010E+07,
2460595.500000000, A.D. 2024-Oct-12 00:00:00.0000, 2.984621781389288E+08, 4.838663533802531E+07, 1.448375167850486E+07,
2460602.500000000, A.D. 2024-Oct-19 00:00:00.0000, 2.969691271412576E+08, 5.988654250893430E+07, 9.921188237784855E+06,
2460609.500000000, A.D. 2024-Oct-26 00:00:00.0000, 2.949584302685938E+08, 7.128211902569151E+07, 5.341325355948001E+06,
2460616.500000000, A.D. 2024-Nov-02 00:00:00.0000, 2.924355523522796E+08, 8.255397755968930E+07, 7.521822295943275E+05,
2460623.500000000, A.D. 2024-Nov-09 00:00:00.0000, 2.894067188513212E+08, 9.368306816544467E+07, -3.838267081344966E+06,
2460630.500000000, A.D. 2024-Nov-16 00:00:00.0000, 2.858788964460873E+08, 1.046506968960254E+08, -8.422102902198523E+06,
2460637.500000000, A.D. 2024-Nov-23 00:00:00.0000, 2.818597737836041E+08, 1.154385433395163E+08, -1.299146881930133E+07,
2460644.500000000, A.D. 2024-Nov-30 00:00:00.0000, 2.773577426270984E+08, 1.260286771078220E+08, -1.753858023343609E+07,
2460651.500000000, A.D. 2024-Dec-07 00:00:00.0000, 2.723818798654733E+08, 1.364035737667271E+08, -2.205573262464631E+07,
2460658.500000000, A.D. 2024-Dec-14 00:00:00.0000, 2.669419297099443E+08, 1.465461314918011E+08, -2.653530939378600E+07,
2460665.500000000, A.D. 2024-Dec-21 00:00:00.0000, 2.610482837663785E+08, 1.564396872774601E+08, -3.096978919449580E+07,
2460672.500000000, A.D. 2024-Dec-28 00:00:00.0000, 2.547119609668719E+08, 1.660680297940850E+08, -3.535175320344665E+07,
2460679.500000000, A.D. 2025-Jan-04 00:00:00.0000, 2.479445899429284E+08, 1.754154113255433E+08, -3.967389239239022E+07,
2460686.500000000, A.D. 2025-Jan-11 00:00:00.0000, 2.407583919992577E+08, 1.844665605230589E+08, -4.392901451544918E+07,
2460693.500000000, A.D. 2025-Jan-18 00:00:00.0000, 2.331661637720807E+08, 1.932066951393893E+08, -4.811005082436818E+07,
2460700.500000000, A.D. 2025-Jan-25 00:00:00.0000, 2.251812598231695E+08, 2.016215343372784E+08, -5.221006260049615E+07,
2460707.500000000, A.D. 2025-Feb-01 00:00:00.0000, 2.168175753560601E+08, 2.096973105943565E+08, -5.622224755139352E+07,
2460714.500000000, A.D. 2025-Feb-08 00:00:00.0000, 2.080895290945225E+08, 2.174207812684880E+08, -6.013994610061546E+07,
2460721.500000000, A.D. 2025-Feb-15 00:00:00.0000, 1.990120463230418E+08, 2.247792398462551E+08, -6.395664759642235E+07,
$$EOE